[{"OBJECT_NAME":"HULIANWANG DIGUI-148","OBJECT_ID":"2026-013C","EPOCH":"2026-03-09T18:05:53.473632","MEAN_MOTION":13.45277942,"ECCENTRICITY":0.00018665,"INCLINATION":50.0248,"RA_OF_ASC_NODE":352.9867,"ARG_OF_PERICENTER":347.0567,"MEAN_ANOMALY":13.0264,"EPHEMERIS_TYPE":0,"CLASSIFICATION_TYPE":"U","NORAD_CAT_ID":67524,"ELEMENT_SET_NO":999,"REV_AT_EPOCH":681,"BSTAR":0.00015432174,"MEAN_MOTION_DOT":-3.8e-7,"MEAN_MOTION_DDOT":0},{"OBJECT_NAME":"DELTA 1 DEB","OBJECT_ID":"1975-052MJ","EPOCH":"2026-03-04T13:57:41.436576","MEAN_MOTION":13.39181674,"ECCENTRICITY":0.0035612,"INCLINATION":99.7714,"RA_OF_ASC_NODE":294.7839,"ARG_OF_PERICENTER":129.4577,"MEAN_ANOMALY":230.971,"EPHEMERIS_TYPE":0,"CLASSIFICATION_TYPE":"U","NORAD_CAT_ID":42649,"ELEMENT_SET_NO":999,"REV_AT_EPOCH":60497,"BSTAR":0.00030856,"MEAN_MOTION_DOT":1.24e-6,"MEAN_MOTION_DDOT":0}]
